[{"OBJECT_NAME":"NEXSAT-1","OBJECT_ID":"2024-024E","EPOCH":"2026-03-09T22:47:24.778176","MEAN_MOTION":15.32166372,"ECCENTRICITY":0.00099795,"INCLINATION":97.3124,"RA_OF_ASC_NODE":144.1918,"ARG_OF_PERICENTER":108.5709,"MEAN_ANOMALY":251.6617,"EPHEMERIS_TYPE":0,"CLASSIFICATION_TYPE":"U","NORAD_CAT_ID":58921,"ELEMENT_SET_NO":999,"REV_AT_EPOCH":11669,"BSTAR":0.00031433612,"MEAN_MOTION_DOT":9.702e-5,"MEAN_MOTION_DDOT":0},{"OBJECT_NAME":"STARLINK-32861","OBJECT_ID":"2025-022S","EPOCH":"2026-03-09T11:47:25.342656","MEAN_MOTION":15.30206511,"ECCENTRICITY":0.00012167,"INCLINATION":53.1604,"RA_OF_ASC_NODE":130.2592,"ARG_OF_PERICENTER":86.9446,"MEAN_ANOMALY":273.1694,"EPHEMERIS_TYPE":0,"CLASSIFICATION_TYPE":"U","NORAD_CAT_ID":62870,"ELEMENT_SET_NO":999,"REV_AT_EPOCH":6187,"BSTAR":0.00087061268,"MEAN_MOTION_DOT":0.0002552,"MEAN_MOTION_DDOT":0}]
